{
  "type": "FeatureCollection",
  "features": [
    {
      "type": "Feature",
      "properties": {
        "norad_id": 66669,
        "name": "TRANSPORTER-15D",
        "group": "last-30-days",
        "lat": 66.06532673493918,
        "lon": 54.84545275579681,
        "alt_km": 512.0267609732919,
        "timestamp": "2025-12-26T11:25:43.984643+00:00",
        "meta_object_name": "TRANSPORTER-15D",
        "meta_object_id": "2025-276D",
        "meta_epoch": "2025-12-26T01:38:17.772864",
        "meta_mean_motion": 15.17493312,
        "meta_eccentricity": 0.0007481,
        "meta_inclination": 97.4283,
        "meta_ra_of_asc_node": 71.5395,
        "meta_arg_of_pericenter": 258.4656,
        "meta_mean_anomaly": 101.5738,
        "meta_ephemeris_type": 0,
        "meta_classification_type": "U",
        "meta_norad_cat_id": 66669,
        "meta_element_set_no": 999,
        "meta_rev_at_epoch": 414,
        "meta_bstar": 0.0011923,
        "meta_mean_motion_dot": 0.00023901,
        "meta_mean_motion_ddot": 0,
        "tle_line1": "1 66669U 25276D   25360.06826126  .00023901  00000+0  11923-2 0  9994",
        "tle_line2": "2 66669  97.4283  71.5395 0007481 258.4656 101.5738 15.17493312  4144"
      },
      "geometry": {
        "type": "Point",
        "coordinates": [
          54.84545275579681,
          66.06532673493918
        ]
      }
    },
    {
      "type": "Feature",
      "properties": {
        "norad_id": 66670,
        "name": "HUNITY",
        "group": "last-30-days",
        "lat": 61.991991452556086,
        "lon": 57.739761612435736,
        "alt_km": 512.3970696980814,
        "timestamp": "2025-12-26T11:25:43.984652+00:00",
        "meta_object_name": "HUNITY",
        "meta_object_id": "2025-276E",
        "meta_epoch": "2025-12-26T03:14:20.702112",
        "meta_mean_motion": 15.1740357,
        "meta_eccentricity": 0.0007109,
        "meta_inclination": 97.4293,
        "meta_ra_of_asc_node": 71.6064,
        "meta_arg_of_pericenter": 258.0598,
        "meta_mean_anomaly": 101.9839,
        "meta_ephemeris_type": 0,
        "meta_classification_type": "U",
        "meta_norad_cat_id": 66670,
        "meta_element_set_no": 999,
        "meta_rev_at_epoch": 415,
        "meta_bstar": 0.0011415,
        "meta_mean_motion_dot": 0.00022817,
        "meta_mean_motion_ddot": 0,
        "tle_line1": "1 66670U 25276E   25360.13496183  .00022817  00000+0  11415-2 0  9991",
        "tle_line2": "2 66670  97.4293  71.6064 0007109 258.0598 101.9839 15.17403570  4153"
      },
      "geometry": {
        "type": "Point",
        "coordinates": [
          57.739761612435736,
          61.991991452556086
        ]
      }
    },
    {
      "type": "Feature",
      "properties": {
        "norad_id": 66671,
        "name": "TRANSPORTER-15F",
        "group": "last-30-days",
        "lat": 70.50586420412114,
        "lon": 50.31741108205092,
        "alt_km": 510.8195862476696,
        "timestamp": "2025-12-26T11:25:43.984661+00:00",
        "meta_object_name": "TRANSPORTER-15F",
        "meta_object_id": "2025-276F",
        "meta_epoch": "2025-12-26T03:11:54.148704",
        "meta_mean_motion": 15.1719745,
        "meta_eccentricity": 0.0005036,
        "meta_inclination": 97.4417,
        "meta_ra_of_asc_node": 71.6487,
        "meta_arg_of_pericenter": 236.6977,
        "meta_mean_anomaly": 123.3774,
        "meta_ephemeris_type": 0,
        "meta_classification_type": "U",
        "meta_norad_cat_id": 66671,
        "meta_element_set_no": 999,
        "meta_rev_at_epoch": 415,
        "meta_bstar": 0.00059638,
        "meta_mean_motion_dot": 0.00011797,
        "meta_mean_motion_ddot": 0,
        "tle_line1": "1 66671U 25276F   25360.13326561  .00011797  00000+0  59638-3 0  9999",
        "tle_line2": "2 66671  97.4417  71.6487 0005036 236.6977 123.3774 15.17197450  4154"
      },
      "geometry": {
        "type": "Point",
        "coordinates": [
          50.31741108205092,
          70.50586420412114
        ]
      }
    },
    {
      "type": "Feature",
      "properties": {
        "norad_id": 66672,
        "name": "TRANSPORTER-15G",
        "group": "last-30-days",
        "lat": 38.58220711095284,
        "lon": 65.97936066814623,
        "alt_km": 516.7808187952169,
        "timestamp": "2025-12-26T11:25:43.984670+00:00",
        "meta_object_name": "TRANSPORTER-15G",
        "meta_object_id": "2025-276G",
        "meta_epoch": "2025-12-26T03:20:25.109664",
        "meta_mean_motion": 15.16658516,
        "meta_eccentricity": 0.0005518,
        "meta_inclination": 97.4388,
        "meta_ra_of_asc_node": 71.6319,
        "meta_arg_of_pericenter": 235.5503,
        "meta_mean_anomaly": 124.5209,
        "meta_ephemeris_type": 0,
        "meta_classification_type": "U",
        "meta_norad_cat_id": 66672,
        "meta_element_set_no": 999,
        "meta_rev_at_epoch": 415,
        "meta_bstar": 0.00041687,
        "meta_mean_motion_dot": 8.097e-05,
        "meta_mean_motion_ddot": 0,
        "tle_line1": "1 66672U 25276G   25360.13917951  .00008097  00000+0  41687-3 0  9993",
        "tle_line2": "2 66672  97.4388  71.6319 0005518 235.5503 124.5209 15.16658516  4154"
      },
      "geometry": {
        "type": "Point",
        "coordinates": [
          65.97936066814623,
          38.58220711095284
        ]
      }
    },
    {
      "type": "Feature",
      "properties": {
        "norad_id": 66673,
        "name": "TRANSPORTER-15H",
        "group": "last-30-days",
        "lat": 81.46008022119445,
        "lon": -47.60311125000746,
        "alt_km": 508.4905339804318,
        "timestamp": "2025-12-26T11:25:43.984682+00:00",
        "meta_object_name": "TRANSPORTER-15H",
        "meta_object_id": "2025-276H",
        "meta_epoch": "2025-12-25T23:58:05.865600",
        "meta_mean_motion": 15.21777094,
        "meta_eccentricity": 0.0023305,
        "meta_inclination": 97.4354,
        "meta_ra_of_asc_node": 71.5014,
        "meta_arg_of_pericenter": 260.7157,
        "meta_mean_anomaly": 99.1444,
        "meta_ephemeris_type": 0,
        "meta_classification_type": "U",
        "meta_norad_cat_id": 66673,
        "meta_element_set_no": 999,
        "meta_rev_at_epoch": 413,
        "meta_bstar": 0.00046623,
        "meta_mean_motion_dot": 0.00010589,
        "meta_mean_motion_ddot": 0,
        "tle_line1": "1 66673U 25276H   25359.99867900  .00010589  00000+0  46623-3 0  9998",
        "tle_line2": "2 66673  97.4354  71.5014 0023305 260.7157  99.1444 15.21777094  4133"
      },
      "geometry": {
        "type": "Point",
        "coordinates": [
          -47.60311125000746,
          81.46008022119445
        ]
      }
    },
    {
      "type": "Feature",
      "properties": {
        "norad_id": 66674,
        "name": "TRANSPORTER-15J",
        "group": "last-30-days",
        "lat": 49.55942709223609,
        "lon": 63.14410381024658,
        "alt_km": 514.5837760022414,
        "timestamp": "2025-12-26T11:25:43.984691+00:00",
        "meta_object_name": "TRANSPORTER-15J",
        "meta_object_id": "2025-276J",
        "meta_epoch": "2025-12-26T03:17:30.904800",
        "meta_mean_motion": 15.16781304,
        "meta_eccentricity": 0.0005114,
        "meta_inclination": 97.4366,
        "meta_ra_of_asc_node": 71.6272,
        "meta_arg_of_pericenter": 240.6544,
        "meta_mean_anomaly": 119.4179,
        "meta_ephemeris_type": 0,
        "meta_classification_type": "U",
        "meta_norad_cat_id": 66674,
        "meta_element_set_no": 999,
        "meta_rev_at_epoch": 415,
        "meta_bstar": 0.00042319,
        "meta_mean_motion_dot": 8.249e-05,
        "meta_mean_motion_ddot": 0,
        "tle_line1": "1 66674U 25276J   25360.13716325  .00008249  00000+0  42319-3 0  9999",
        "tle_line2": "2 66674  97.4366  71.6272 0005114 240.6544 119.4179 15.16781304  4155"
      },
      "geometry": {
        "type": "Point",
        "coordinates": [
          63.14410381024658,
          49.55942709223609
        ]
      }
    },
    {
      "type": "Feature",
      "properties": {
        "norad_id": 66675,
        "name": "TRANSPORTER-15K",
        "group": "last-30-days",
        "lat": 63.901907460218645,
        "lon": 56.501496336104346,
        "alt_km": 512.3033653010534,
        "timestamp": "2025-12-26T11:25:43.984700+00:00",
        "meta_object_name": "TRANSPORTER-15K",
        "meta_object_id": "2025-276K",
        "meta_epoch": "2025-12-25T01:53:59.672832",
        "meta_mean_motion": 15.17040244,
        "meta_eccentricity": 0.00054509,
        "meta_inclination": 97.4384,
        "meta_ra_of_asc_node": 70.5991,
        "meta_arg_of_pericenter": 251.3095,
        "meta_mean_anomaly": 108.7547,
        "meta_ephemeris_type": 0,
        "meta_classification_type": "U",
        "meta_norad_cat_id": 66675,
        "meta_element_set_no": 999,
        "meta_rev_at_epoch": 399,
        "meta_bstar": 0.00023807205,
        "meta_mean_motion_dot": 4.644e-05,
        "meta_mean_motion_ddot": 0,
        "tle_line1": "1 66675U 25276K   25359.07916288  .00004644  00000+0  23807-3 0  9997",
        "tle_line2": "2 66675  97.4384  70.5991 0005450 251.3095 108.7547 15.17040244  3998"
      },
      "geometry": {
        "type": "Point",
        "coordinates": [
          56.501496336104346,
          63.901907460218645
        ]
      }
    }
  ]
}